{
  "type": "FeatureCollection",
  "features": [
    {
      "type": "Feature",
      "properties": {
        "norad_id": 53093,
        "name": "COSMOS 2251 DEB",
        "group": "cosmos-2251-debris",
        "lat": 74.01544326713832,
        "lon": 6.542050473674164,
        "alt_km": 747.3891379306151,
        "timestamp": "2025-12-27T08:36:18.783266+00:00",
        "meta_object_name": "COSMOS 2251 DEB",
        "meta_object_id": "1993-036BYP",
        "meta_epoch": "2025-12-26T20:31:55.323552",
        "meta_mean_motion": 14.41957299,
        "meta_eccentricity": 0.00199722,
        "meta_inclination": 74.0363,
        "meta_ra_of_asc_node": 275.2913,
        "meta_arg_of_pericenter": 350.2761,
        "meta_mean_anomaly": 9.8005,
        "meta_ephemeris_type": 0,
        "meta_classification_type": "U",
        "meta_norad_cat_id": 53093,
        "meta_element_set_no": 999,
        "meta_rev_at_epoch": 17929,
        "meta_bstar": 0.00087976772,
        "meta_mean_motion_dot": 2.865e-05,
        "meta_mean_motion_ddot": 0,
        "tle_line1": "1 53093U 93036BYP 25360.85550143  .00002865  00000+0  87977-3 0  9999",
        "tle_line2": "2 53093  74.0363 275.2913 0019972 350.2761   9.8005 14.41957299179297"
      },
      "geometry": {
        "type": "Point",
        "coordinates": [
          6.542050473674164,
          74.01544326713832
        ]
      }
    }
  ]
}